ONEWEB-0166             
1 48065U 21025Z   25324.11562119  .00000148  00000+0  37106-3 0  9997
2 48065  87.9008   1.7494 0001634  94.2526 265.8790 13.13469303226206
ONEWEB-0151             
1 48066U 21025AA  25324.11731318  .00000113  00000+0  27447-3 0  9996
2 48066  87.9009   1.7750 0001942  93.7116 266.4235 13.13468901226141
ONEWEB-0170             
1 48067U 21025AB  25324.12578190 -.00000107  00000+0 -32897-3 0  9995
2 48067  87.9005   1.7795 0002247 100.8655 259.2728 13.13469697226100
ONEWEB-0168             
1 48068U 21025AC  25324.18672277  .00000237  00000+0  61287-3 0  9990
2 48068  87.9011   1.7507 0001747  89.8419 270.2910 13.13469174226125
ONEWEB-0173             
1 48069U 21025AD  25324.17825885  .00000398  00000+0  10547-2 0  9995
2 48069  87.9010   1.7601 0001939  83.7329 276.4021 13.13469661226364
ONEWEB-0171             
1 48070U 21025AE  25324.13930701 -.00000243  00000+0 -69998-3 0  9993
2 48070  87.8993   1.7944 0001953  94.7549 265.3803 13.13469176226172
ONEWEB-0172             
1 48071U 21025AF  25324.11900828  .00000043  00000+0  83576-4 0  9994
2 48071  87.9011   1.7765 0001917  91.8799 268.2549 13.13469264227067
ONEWEB-0174             
1 48072U 21025AG  25324.17656527  .00000382  00000+0  10123-2 0  9997
2 48072  87.8998   1.7714 0001688  94.0230 266.1092 13.13469673226394
ONEWEB-0175             
1 48073U 21025AH  25324.13085342 -.00000193  00000+0 -56442-3 0  9992
2 48073  87.9007   1.7484 0002157  94.9370 265.2005 13.13469485226044
ONEWEB-0177             
1 48074U 21025AJ  25324.14269885 -.00000225  00000+0 -65204-3 0  9992
2 48074  87.9008   1.7651 0001683  90.2327 269.8995 13.13469030226231
ONEWEB-0178             
1 48075U 21025AK  25324.16146664  .00000159  00000+0  40026-3 0  9993
2 48075  87.8997   1.8050 0002069  89.9407 270.1959 13.13469877226284
ONEWEB-0108             
1 48076U 21025AL  25324.12069943  .00000026  00000+0  35835-4 0  9990
2 48076  87.9008   1.7597 0001692 102.3697 257.7621 13.13468071226200
ONEWEB-0169             
1 48077U 21025AM  25324.15286562  .00000006  00000+0 -18160-4 0  9993
2 48077  87.9001   1.7749 0001725 102.7909 257.3413 13.13472172224862
ONEWEB-0176             
1 48210U 21031A   25324.08345005  .00000164  00000+0  40737-3 0  9997
2 48210  87.8986 331.3607 0001959  88.8865 271.2490 13.14502436220843
ONEWEB-0184             
1 48211U 21031B   25324.28483803 -.00000131  00000+0 -38720-3 0  9994
2 48211  87.8996 331.2984 0002653  85.0645 275.0788 13.14502540220847
ONEWEB-0179             
1 48212U 21031C   25324.25547811  .00000270  00000+0  69321-3 0  9995
2 48212  87.8988 331.3138 0001772  89.0256 271.1076 13.14504619220884
ONEWEB-0180             
1 48213U 21031D   25324.05964482 -.00000213  00000+0 -61013-3 0  9990
2 48213  87.8995 331.3494 0001893  80.9883 279.1461 13.14502291220743
