[{"OBJECT_NAME":"ONEWEB-0166","OBJECT_ID":"2021-025Z","EPOCH":"2025-11-20T02:46:29.670816","MEAN_MOTION":13.13469303,"ECCENTRICITY":0.00016348,"INCLINATION":87.9008,"RA_OF_ASC_NODE":1.7494,"ARG_OF_PERICENTER":94.2526,"MEAN_ANOMALY":265.879,"EPHEMERIS_TYPE":0,"CLASSIFICATION_TYPE":"U","NORAD_CAT_ID":48065,"ELEMENT_SET_NO":999,"REV_AT_EPOCH":22620,"BSTAR":0.00037105774,"MEAN_MOTION_DOT":1.48e-6,"MEAN_MOTION_DDOT":0},{"OBJECT_NAME":"ONEWEB-0151","OBJECT_ID":"2021-025AA","EPOCH":"2025-11-20T02:48:55.858752","MEAN_MOTION":13.13468901,"ECCENTRICITY":0.00019424,"INCLINATION":87.9009,"RA_OF_ASC_NODE":1.775,"ARG_OF_PERICENTER":93.7116,"MEAN_ANOMALY":266.4235,"EPHEMERIS_TYPE":0,"CLASSIFICATION_TYPE":"U","NORAD_CAT_ID":48066,"ELEMENT_SET_NO":999,"REV_AT_EPOCH":22614,"BSTAR":0.00027447156,"MEAN_MOTION_DOT":1.13e-6,"MEAN_MOTION_DDOT":0},{"OBJECT_NAME":"ONEWEB-0170","OBJECT_ID":"2021-025AB","EPOCH":"2025-11-20T03:01:07.556160","MEAN_MOTION":13.13469697,"ECCENTRICITY":0.00022471,"INCLINATION":87.9005,"RA_OF_ASC_NODE":1.7795,"ARG_OF_PERICENTER":100.8655,"MEAN_ANOMALY":259.2728,"EPHEMERIS_TYPE":0,"CLASSIFICATION_TYPE":"U","NORAD_CAT_ID":48067,"ELEMENT_SET_NO":999,"REV_AT_EPOCH":22610,"BSTAR":-0.00032897326,"MEAN_MOTION_DOT":-1.07e-6,"MEAN_MOTION_DDOT":0},{"OBJECT_NAME":"ONEWEB-0168","OBJECT_ID":"2021-025AC","EPOCH":"2025-11-20T04:28:52.847328","MEAN_MOTION":13.13469174,"ECCENTRICITY":0.0001747,"INCLINATION":87.9011,"RA_OF_ASC_NODE":1.7507,"ARG_OF_PERICENTER":89.8419,"MEAN_ANOMALY":270.291,"EPHEMERIS_TYPE":0,"CLASSIFICATION_TYPE":"U","NORAD_CAT_ID":48068,"ELEMENT_SET_NO":999,"REV_AT_EPOCH":22612,"BSTAR":0.00061287129,"MEAN_MOTION_DOT":2.37e-6,"MEAN_MOTION_DDOT":0},{"OBJECT_NAME":"ONEWEB-0173","OBJECT_ID":"2021-025AD","EPOCH":"2025-11-20T04:16:41.564640","MEAN_MOTION":13.13469661,"ECCENTRICITY":0.00019391,"INCLINATION":87.901,"RA_OF_ASC_NODE":1.7601,"ARG_OF_PERICENTER":83.7329,"MEAN_ANOMALY":276.4021,"EPHEMERIS_TYPE":0,"CLASSIFICATION_TYPE":"U","NORAD_CAT_ID":48069,"ELEMENT_SET_NO":999,"REV_AT_EPOCH":22636,"BSTAR":0.0010547111,"MEAN_MOTION_DOT":3.98e-6,"MEAN_MOTION_DDOT":0},{"OBJECT_NAME":"ONEWEB-0171","OBJECT_ID":"2021-025AE","EPOCH":"2025-11-20T03:20:36.125664","MEAN_MOTION":13.13469176,"ECCENTRICITY":0.00019531,"INCLINATION":87.8993,"RA_OF_ASC_NODE":1.7944,"ARG_OF_PERICENTER":94.7549,"MEAN_ANOMALY":265.3803,"EPHEMERIS_TYPE":0,"CLASSIFICATION_TYPE":"U","NORAD_CAT_ID":48070,"ELEMENT_SET_NO":999,"REV_AT_EPOCH":22617,"BSTAR":-0.00069998124,"MEAN_MOTION_DOT":-2.43e-6,"MEAN_MOTION_DDOT":0},{"OBJECT_NAME":"ONEWEB-0172","OBJECT_ID":"2021-025AF","EPOCH":"2025-11-20T02:51:22.315392","MEAN_MOTION":13.13469264,"ECCENTRICITY":0.0001917,"INCLINATION":87.9011,"RA_OF_ASC_NODE":1.7765,"ARG_OF_PERICENTER":91.8799,"MEAN_ANOMALY":268.2549,"EPHEMERIS_TYPE":0,"CLASSIFICATION_TYPE":"U","NORAD_CAT_ID":48071,"ELEMENT_SET_NO":999,"REV_AT_EPOCH":22706,"BSTAR":8.3575741e-5,"MEAN_MOTION_DOT":4.3e-7,"MEAN_MOTION_DDOT":0},{"OBJECT_NAME":"ONEWEB-0174","OBJECT_ID":"2021-025AG","EPOCH":"2025-11-20T04:14:15.239328","MEAN_MOTION":13.13469673,"ECCENTRICITY":0.00016886,"INCLINATION":87.8998,"RA_OF_ASC_NODE":1.7714,"ARG_OF_PERICENTER":94.023,"MEAN_ANOMALY":266.1092,"EPHEMERIS_TYPE":0,"CLASSIFICATION_TYPE":"U","NORAD_CAT_ID":48072,"ELEMENT_SET_NO":999,"REV_AT_EPOCH":22639,"BSTAR":0.0010123429,"MEAN_MOTION_DOT":3.82e-6,"MEAN_MOTION_DDOT":0},{"OBJECT_NAME":"ONEWEB-0175","OBJECT_ID":"2021-025AH","EPOCH":"2025-11-20T03:08:25.735488","MEAN_MOTION":13.13469485,"ECCENTRICITY":0.00021575,"INCLINATION":87.9007,"RA_OF_ASC_NODE":1.7484,"ARG_OF_PERICENTER":94.937,"MEAN_ANOMALY":265.2005,"EPHEMERIS_TYPE":0,"CLASSIFICATION_TYPE":"U","NORAD_CAT_ID":48073,"ELEMENT_SET_NO":999,"REV_AT_EPOCH":22604,"BSTAR":-0.00056442017,"MEAN_MOTION_DOT":-1.93e-6,"MEAN_MOTION_DDOT":0},{"OBJECT_NAME":"ONEWEB-0177","OBJECT_ID":"2021-025AJ","EPOCH":"2025-11-20T03:25:29.180640","MEAN_MOTION":13.1346903,"ECCENTRICITY":0.00016835,"INCLINATION":87.9008,"RA_OF_ASC_NODE":1.7651,"ARG_OF_PERICENTER":90.2327,"MEAN_ANOMALY":269.8995,"EPHEMERIS_TYPE":0,"CLASSIFICATION_TYPE":"U","NORAD_CAT_ID":48074,"ELEMENT_SET_NO":999,"REV_AT_EPOCH":22623,"BSTAR":-0.00065203901,"MEAN_MOTION_DOT":-2.25e-6,"MEAN_MOTION_DDOT":0},{"OBJECT_NAME":"ONEWEB-0178","OBJECT_ID":"2021-025AK","EPOCH":"2025-11-20T03:52:30.717696","MEAN_MOTION":13.13469877,"ECCENTRICITY":0.00020695,"INCLINATION":87.8997,"RA_OF_ASC_NODE":1.805,"ARG_OF_PERICENTER":89.9407,"MEAN_ANOMALY":270.1959,"EPHEMERIS_TYPE":0,"CLASSIFICATION_TYPE":"U","NORAD_CAT_ID":48075,"ELEMENT_SET_NO":999,"REV_AT_EPOCH":22628,"BSTAR":0.00040025927,"MEAN_MOTION_DOT":1.59e-6,"MEAN_MOTION_DDOT":0},{"OBJECT_NAME":"ONEWEB-0108","OBJECT_ID":"2021-025AL","EPOCH":"2025-11-20T02:53:48.430752","MEAN_MOTION":13.13468071,"ECCENTRICITY":0.00016928,"INCLINATION":87.9008,"RA_OF_ASC_NODE":1.7597,"ARG_OF_PERICENTER":102.3697,"MEAN_ANOMALY":257.7621,"EPHEMERIS_TYPE":0,"CLASSIFICATION_TYPE":"U","NORAD_CAT_ID":48076,"ELEMENT_SET_NO":999,"REV_AT_EPOCH":22620,"BSTAR":3.5835418e-5,"MEAN_MOTION_DOT":2.6e-7,"MEAN_MOTION_DDOT":0},{"OBJECT_NAME":"ONEWEB-0169","OBJECT_ID":"2021-025AM","EPOCH":"2025-11-20T03:40:07.589568","MEAN_MOTION":13.13472172,"ECCENTRICITY":0.0001725,"INCLINATION":87.9001,"RA_OF_ASC_NODE":1.7749,"ARG_OF_PERICENTER":102.7909,"MEAN_ANOMALY":257.3413,"EPHEMERIS_TYPE":0,"CLASSIFICATION_TYPE":"U","NORAD_CAT_ID":48077,"ELEMENT_SET_NO":999,"REV_AT_EPOCH":22486,"BSTAR":-1.816047e-5,"MEAN_MOTION_DOT":6.0e-8,"MEAN_MOTION_DDOT":0},{"OBJECT_NAME":"ONEWEB-0176","OBJECT_ID":"2021-031A","EPOCH":"2025-11-20T02:00:10.084320","MEAN_MOTION":13.14502436,"ECCENTRICITY":0.00019592,"INCLINATION":87.8986,"RA_OF_ASC_NODE":331.3607,"ARG_OF_PERICENTER":88.8865,"MEAN_ANOMALY":271.249,"EPHEMERIS_TYPE":0,"CLASSIFICATION_TYPE":"U","NORAD_CAT_ID":48210,"ELEMENT_SET_NO":999,"REV_AT_EPOCH":22084,"BSTAR":0.00040737077,"MEAN_MOTION_DOT":1.64e-6,"MEAN_MOTION_DDOT":0},{"OBJECT_NAME":"ONEWEB-0184","OBJECT_ID":"2021-031B","EPOCH":"2025-11-20T06:50:10.005792","MEAN_MOTION":13.1450254,"ECCENTRICITY":0.00026538,"INCLINATION":87.8996,"RA_OF_ASC_NODE":331.2984,"ARG_OF_PERICENTER":85.0645,"MEAN_ANOMALY":275.0788,"EPHEMERIS_TYPE":0,"CLASSIFICATION_TYPE":"U","NORAD_CAT_ID":48211,"ELEMENT_SET_NO":999,"REV_AT_EPOCH":22084,"BSTAR":-0.00038720337,"MEAN_MOTION_DOT":-1.31e-6,"MEAN_MOTION_DDOT":0},{"OBJECT_NAME":"ONEWEB-0179","OBJECT_ID":"2021-031C","EPOCH":"2025-11-20T06:07:53.308704","MEAN_MOTION":13.14504619,"ECCENTRICITY":0.00017722,"INCLINATION":87.8988,"RA_OF_ASC_NODE":331.3138,"ARG_OF_PERICENTER":89.0256,"MEAN_ANOMALY":271.1076,"EPHEMERIS_TYPE":0,"CLASSIFICATION_TYPE":"U","NORAD_CAT_ID":48212,"ELEMENT_SET_NO":999,"REV_AT_EPOCH":22088,"BSTAR":0.00069320687,"MEAN_MOTION_DOT":2.7e-6,"MEAN_MOTION_DDOT":0},{"OBJECT_NAME":"ONEWEB-0180","OBJECT_ID":"2021-031D","EPOCH":"2025-11-20T01:25:53.312448","MEAN_MOTION":13.14502291,"ECCENTRICITY":0.00018937,"INCLINATION":87.8995,"RA_OF_ASC_NODE":331.3494,"ARG_OF_PERICENTER":80.9883,"MEAN_ANOMALY":279.1461,"EPHEMERIS_TYPE":0,"CLASSIFICATION_TYPE":"U","NORAD_CAT_ID":48213,"ELEMENT_SET_NO":999,"REV_AT_EPOCH":22074,"BSTAR":-0.0006101328,"MEAN_MOTION_DOT":-2.13e-6,"MEAN_MOTION_DDOT":0}]
